CICERO 10               
1 43690U 18088A   21282.03313611  .00002759  00000-0  12006-3 0  9995
2 43690  85.0340 122.7187 0014376   2.2601 357.8703 15.21662271161491
IRVINE01                
1 43693U 18088D   21282.05370344  .00007352  00000-0  27687-3 0  9991
2 43693  85.0298 119.3995 0014817 332.0513  27.9934 15.26808892161768
PROXIMA I               
1 43694U 18088E   21282.00627801  .00002511  00000-0  10361-3 0  9993
2 43694  85.0278 120.0602 0017142 328.2248  31.7958 15.23375296161669
PROXIMA II              
1 43696U 18088G   21282.07047498  .00002480  00000-0  10230-3 0  9990
2 43696  85.0281 120.0288 0017191 327.9406  32.0789 15.23371190161666
FACSAT-1                
1 43721U 18096C   21282.44297660  .00005319  00000-0  18707-3 0  9998
2 43721  97.3778 358.7181 0015421 222.9514 194.8958 15.29671305159548
CENTAURI-2              
1 43722U 18096D   21282.44277232  .00007032  00000-0  23642-3 0  9990
2 43722  97.3801 359.7684 0015068 220.6358 139.3760 15.31024319159593
INNOSAT-2               
1 43738U 18096V   21282.47464297  .00011119  00000-0  32737-3 0  9995
2 43738  97.3878   4.3154 0019488 219.5375 195.7329 15.35039430159888
SIRION PATHFINDER-2     
1 43759U 18099B   21282.19955703  .00000932  00000-0  88853-4 0  9999
2 43759  97.6538 350.2284 0014722  28.8393 331.3639 14.95625814155487
CORVUS BC4              
1 43767U 18099K   21282.18816374  .00000665  00000-0  65814-4 0  9992
2 43767  97.6506 349.0682 0012369  34.7035 325.4990 14.95042990155429
MOVE-II                 
1 43780U 18099Y   21282.18300138  .00001101  00000-0  10275-3 0  9999
2 43780  97.6566 350.4788 0013993  38.7165 321.5057 14.96149325155472
SPACEBEE-7              
1 43816U 18099BL  21282.44799676  .00000740  00000-0  70435-4 0  9990
2 43816  97.6583 351.3883 0013596  22.2656 337.9153 14.96313766155109
SPACEBEE-5              
1 43817U 18099BM  21282.15155129  .00003527  00000-0  30473-3 0  9991
2 43817  97.6691 352.7302 0013032  24.5615 335.6226 14.97797943155128
SPACEBEE-6              
1 43818U 18099BN  21282.44831561  .00001170  00000-0  10716-3 0  9995
2 43818  97.6612 351.8863 0013406  21.3328 338.8450 14.96760438155273
SHIELDS 1               
1 43850U 18104B   21282.33124642  .00001627  00000-0  69052-4 0  9996
2 43850  85.0321 218.5612 0016947 106.7035 253.6069 15.22101553156294
STF-1                   
1 43852U 18104D   21282.11674158  .00004161  00000-0  17499-3 0  9999
2 43852  85.0358 219.3482 0016204 118.9206 241.3664 15.22959541156250
ZACUBE-2                
1 43907U 18111AH  21282.48174973  .00001732  00000-0  70903-4 0  9999
2 43907  97.2161 172.7083 0019241 248.7494 236.3405 15.25473760155019
LUME 1                  
1 43908U 18111AJ  21282.26089724  .00003356  00000-0  12976-3 0  9994
2 43908  97.2170 173.2681 0018358 245.8963 114.0356 15.26745739155035
AOBA VELOX-IV           
1 43940U 19003J   21282.07517190  .00006924  00000-0  25154-3 0  9999
2 43940  97.1657 321.8910 0020594 329.1285  30.8743 15.28392176151658
UNITE                   
1 44031U 98067PX  21281.74676736  .00416901  90543-4  60964-3 0  9996
2 44031  51.6335  32.2752 0008463 338.2659  21.7993 16.04480648153668
UGUISU                  
1 44330U 98067QF  21279.86920406  .06149552  12290-4  92993-3 0  9995
2 44330  51.6114  61.5571 0010398 309.1628  50.8471 16.33273521131833
SPOOQY-1                
1 44332U 98067QH  21281.81302560  .00700767  28491-3  62071-3 0  9998
2 44332  51.6198  52.9147 0010099 338.0297  22.0283 16.12212410132099
SPACEBEE-9              
1 44370U 19037F   21282.16524332  .00102451  00000-0  86652-3 0  9992
2 44370  44.9930 285.0808 0006906 110.4421 249.7220 15.68711409128968
MOVE-IIB                
1 44398U 19038N   21282.25965650  .00004394  00000-0  24250-3 0  9998
2 44398  97.5939 245.8683 0022325 278.4901  81.3799 15.14272627124981
SONATE                  
1 44400U 19038Q   21282.15993113  .00002053  00000-0  12007-3 0  9993
2 44400  97.6017 245.5379 0023116 279.6415  80.2204 15.12810744124923
LUCKY-7                 
1 44406U 19038W   21282.13170072  .00002213  00000-0  12757-3 0  9998
2 44406  97.6037 245.8163 0022284 278.2963  81.5741 15.13266753124930
BEESAT 9                
1 44412U 19038AC  21281.85835277  .00003281  00000-0  18513-3 0  9990
2 44412  97.6017 245.6069 0020222 284.9342  74.9650 15.13705810124604
JAISAT-1                
1 44419U 19038F   21282.45264502  .00003296  00000-0  18354-3 0  9990
2 44419  97.6023 246.8377 0019066 280.3800  79.5282 15.14195138125044
KRAKSAT                 
1 44427U 98067QM  21282.45304339  .00077114  00000-0  49021-3 0  9996
2 44427  51.6384  77.9013 0003266 291.7297 118.6088 15.75770235129399
VCC A                   
1 44428U 98067QN  21282.37620358  .00601749  18249-3  88997-3 0  9999
2 44428  51.6270  56.1615 0010284 321.7344  38.2937 16.04238660129671
VCC B                   
1 44431U 98067QR  21282.38898265  .01200079  98714-3  96070-3 0  9996
2 44431  51.6187  53.7962 0011385 322.1316  37.8898 16.13795308129642
DUCHIFAT-3              
1 44854U 19089C   21282.32141809  .00001197  00000-0  10153-3 0  9996
2 44854  36.9668 147.1622 0009345 335.1845  24.8447 14.99678796100206
EYESAT-NANO             
1 44877U 19092E   21281.97860523  .00003867  00000-0  19019-3 0  9992
2 44877  97.4627 104.0606 0013558 148.5553 211.6494 15.18530688100167
ORBITAL FACTORY 2 (OF-2)
1 45113U 19071C   21282.18131227  .00007333  00000-0  21049-3 0  9997
2 45113  51.6417 205.7071 0011150 349.1474  10.9267 15.36867569 94657
M2 PATHFINDER           
1 45727U 20037E   21282.40651982  .00000298  00000-0  35327-4 0  9990
2 45727  97.7209  97.8056 0013637 144.9572 215.2472 14.91465786 69401
NETSAT-4                
1 46504U 20068U   21282.27284505  .00000632  00000-0  52454-4 0  9998
2 46504  97.6983 218.2250 0015569  89.9352 270.3645 15.02262074 56327
NETSAT-3                
1 46505U 20068V   21282.28238805  .00000876  00000-0  70949-4 0  9991
2 46505  97.6981 218.1866 0014594 102.1889 258.0972 15.02238125 56335
NETSAT-1                
1 46506U 20068W   21282.29161974  .00001093  00000-0  87514-4 0  9993
2 46506  97.6958 218.1512 0011737 115.7740 244.4697 15.02206476 56337
NETSAT-2                
1 46507U 20068X   21282.29717809  .00001399  00000-0  11077-3 0  9997
2 46507  97.6945 218.1501 0010048 123.8361 236.3821 15.02179976 56282
SPOC                    
1 46921U 98067RR  21281.97389175  .00018397  00000-0  25409-3 0  9996
2 46921  51.6390 128.9163 0002483 151.2964 208.8165 15.57214809 52530
BOBCAT-1                
1 46922U 98067RS  21282.26710805  .00029612  00000-0  35677-3 0  9998
2 46922  51.6397 124.1552 0002377 172.4589 187.6441 15.60537864 52576
NEUTRON-1               
1 46923U 98067RT  21281.99880232  .00018654  00000-0  25881-3 0  9990
2 46923  51.6392 129.0793 0002503 162.2713 197.8367 15.57081269 52568
1998-067RU              
1 46924U 98067RU  21281.95262096  .00079899  00000-0  66283-3 0  9998
2 46924  51.6346 118.2196 0003914 219.5531 140.5181 15.69488510 52670
DESCENT                 
1 46927U 98067RX  21282.06792583  .00019340  00000-0  26770-3 0  9995
2 46927  51.6391 128.7863 0002663 177.7916 182.3088 15.57117930 52483
SAI-1 NANOCONNECT-2     
1 47701U 21015C   21282.15326872 -.00000071  00000-0  00000-0 0  9996
2 47701  97.4565 355.8868 0009760 256.2002 103.8309 15.23187869 33920
WARP-01                 
1 47924U 98067SA  21281.85622023  .00024240  00000-0  35424-3 0  9991
2 47924  51.6396 135.5995 0005336 169.8455 190.2645 15.55481410 32422
RSP-01                  
1 47925U 98067SB  21281.89110001  .00019710  00000-0  29940-3 0  9996
2 47925  51.6402 135.8456 0002341 119.0454 241.0772 15.54569432 32409
TAUSAT-1                
1 47926U 98067SC  21281.86657902  .00026623  00000-0  38317-3 0  9999
2 47926  51.6386 134.9230 0003120 117.2048 242.9262 15.55849594 32401
TSURU                   
1 47927U 98067SD  21281.98049423  .00016924  00000-0  26237-3 0  9997
2 47927  51.6402 135.6917 0002380 114.3247 245.7993 15.54124687 32418
STARS-EC                
1 47928U 98067SE  21282.18539707  .00025015  00000-0  36388-3 0  9999
2 47928  51.6394 134.0514 0005967 175.1846 184.9204 15.55584275 32434
MAYA-2                  
1 47929U 98067SF  21282.29809983  .00016868  00000-0  26126-3 0  9993
2 47929  51.6401 134.0616 0002389 112.3215 247.8029 15.54153350 32423
HIROGARI (OPUSAT-II)    
1 47930U 98067SG  21282.13480815  .00029101  00000-0  41266-3 0  9993
2 47930  51.6393 133.7249 0002116 124.9356 235.1834 15.56203973 32452
GUARANISAT-1            
1 47931U 98067SH  21281.97453689  .00016676  00000-0  25822-3 0  9997
2 47931  51.6406 135.6542 0002451 110.1274 249.9980 15.54170044 32414
SMOG-1                  
1 47964U 21022AJ  21282.29032054  .00002300  00000-0  15559-3 0  9990
2 47964  97.5447 182.5026 0018126 277.7091  82.2079 15.07407914 29022
MMSATS-1                
1 47976U 98067SJ  21282.14866834  .00006780  00000-0  12255-3 0  9997
2 47976  51.6470 137.5270 0003245 146.0395 214.0802 15.50953086 31187
BCCSAT-1                
1 48041U 21022AK  21282.22938721  .00001615  00000-0  11232-3 0  9998
2 48041  97.5455 182.3027 0014347 275.2018  84.7573 15.06831651 28988
RAMSAT                  
1 48850U 98067SL  21282.16911844  .00010606  00000-0  18322-3 0  9996
2 48850  51.6405 137.6706 0004527 193.7406 166.3461 15.51561174 18154
SOAR                    
1 48851U 98067SM  21282.16969183  .00033756  00000-0  47652-3 0  9995
2 48851  51.6371 136.1634 0005671 192.7979 167.2869 15.56235228 18218
BD-28                   
1 48867U 98067SN  21281.96629258  .00013013  00000-0  22066-3 0  9991
2 48867  51.6402 138.5690 0002993 219.6129 140.4643 15.51860985 16870
MIR-SAT 1               
1 48868U 98067SP  21282.00417532  .00027399  00000-0  43247-3 0  9994
2 48868  51.6397 138.0726 0003629 191.7154 168.3752 15.53295819 16919
